COSMOS 2522 (752)       
1 42939U 17055A   26175.16181676  .00000104  00000+0  00000+0 0  9995
2 42939  64.0776 191.6387 0008409 235.5259 124.4452  2.13101107 68121
COSMOS 2527 (756)       
1 43508U 18053A   26178.87771987 -.00000045  00000+0  00000+0 0  9993
2 43508  65.5836  73.5506 0006813 236.4648 123.5150  2.13102103 62505
COSMOS 2529 (757)       
1 43687U 18086A   26180.38188307  .00000086  00000+0  00000+0 0  9998
2 43687  64.2959 192.1827 0012123 256.5039 103.4062  2.13102097 59548
COSMOS 2534 (758)       
1 44299U 19030A   26178.32513172  .00000100  00000+0  00000+0 0  9998
2 44299  64.3693 192.2752 0013562 275.0761  81.5437  2.13102451 55135
COSMOS 2544 (759)       
1 44850U 19088A   26176.94531591 -.00000063  00000+0  00000+0 0  9994
2 44850  65.5707  73.4383 0012923 257.6247 102.2670  2.13102928 50901
COSMOS 2545 (760)       
1 45358U 20018A   26179.95584880 -.00000071  00000+0  00000+0 0  9995
2 45358  64.3473 312.0049 0008835 229.6158 130.2998  2.13102693 48911
COSMOS 2547 (705K)      
1 46805U 20075A   26178.26844155  .00000101  00000+0  00000+0 0  9996
2 46805  64.6001 192.1390 0009405 239.7377 120.2212  2.13100208 44121
COSMOS 2557 (706K)      
1 52984U 22075A   26178.43265500 -.00000082  00000+0  00000+0 0  9992
2 52984  64.2922 314.1237 0010324 273.3478  86.5234  2.13102281 30933
COSMOS 2559 (707K)      
1 54031U 22130A   26178.72156692 -.00000081  00000+0  00000+0 0  9991
2 54031  64.2645 314.1973 0012766 179.1655 180.8266  2.13101825 28910
COSMOS 2564 (761)       
1 54377U 22161A   26178.56481008  .00000099  00000+0  00000+0 0  9990
2 54377  64.7427 192.3671 0012257 225.0587 134.8937  2.13102113 27854
COSMOS 2569 (703K)      
1 57517U 23114A   26179.51563696 -.00000038  00000+0  00000+0 0  9992
2 57517  65.3084  72.2385 0010262 296.5963  63.3487  2.13103866 22501
COSMOS 2584 (704K)      
1 63130U 25042A   26176.58687826 -.00000066  00000+0  00000+0 0  9999
2 63130  65.0897  72.5163 0006261 227.4073 132.5759  2.13103987 10225
COSMOS 2596 (708K)      
1 65590U 25206B   26178.83593120 -.00000080  00000+0  00000+0 0  9992
2 65590  64.6279 314.6147 0011061 310.3600  91.2409  2.13101038  6144
